CENTAURI-1              
1 43809U 18099BD  26201.13127062  .00002635  00000+0  13784-3 0  9995
2 43809  97.4198 252.1462 0013424 206.8523 153.2017 15.16651835417491
CENTAURI-6              
1 59451U 24066K   26200.37361643  .00002332  00000+0  17389-3 0  9995
2 59451  45.6065  86.3676 0001720 257.9076 102.1616 15.06056915124972
CENTAURI-7              
1 62708U 25009DD  26200.79396347  .00000949  00000+0  85356-4 0  9999
2 62708  97.7093 280.6575 0002472  94.9642 265.1862 14.97986999 82340
CENTAURI-8              
1 62714U 25009DK  26201.15679408  .00001609  00000+0  14141-3 0  9996
2 62714  97.7034 280.8325 0002503  75.9133 284.2368 14.97941944 82418
