{"fetched_at":"2026-07-20T18:29:16.524Z","source":"https://celestrak.org/NORAD/elements/gp.php?NAME=CENTAURI&FORMAT=JSON","constellation":"myriota","records":[{"OBJECT_NAME":"CENTAURI-1","OBJECT_ID":"2018-099BD","EPOCH":"2026-07-20T03:09:01.781568","CLASSIFICATION_TYPE":"U","MEAN_MOTION":15.16651835,"ECCENTRICITY":0.00134247,"INCLINATION":97.4198,"RA_OF_ASC_NODE":252.1462,"ARG_OF_PERICENTER":206.8523,"MEAN_ANOMALY":153.2017,"EPHEMERIS_TYPE":0,"NORAD_CAT_ID":43809,"ELEMENT_SET_NO":999,"REV_AT_EPOCH":41749,"BSTAR":0.00013784283,"MEAN_MOTION_DOT":0.00002635,"MEAN_MOTION_DDOT":0},{"OBJECT_NAME":"CENTAURI-6","OBJECT_ID":"2024-066K","EPOCH":"2026-07-19T08:58:00.459552","CLASSIFICATION_TYPE":"U","MEAN_MOTION":15.06056915,"ECCENTRICITY":0.00017209,"INCLINATION":45.6065,"RA_OF_ASC_NODE":86.3676,"ARG_OF_PERICENTER":257.9076,"MEAN_ANOMALY":102.1616,"EPHEMERIS_TYPE":0,"NORAD_CAT_ID":59451,"ELEMENT_SET_NO":999,"REV_AT_EPOCH":12497,"BSTAR":0.00017389278,"MEAN_MOTION_DOT":0.00002332,"MEAN_MOTION_DDOT":0},{"OBJECT_NAME":"CENTAURI-7","OBJECT_ID":"2025-009DD","EPOCH":"2026-07-19T19:03:18.443808","CLASSIFICATION_TYPE":"U","MEAN_MOTION":14.97986999,"ECCENTRICITY":0.00024728,"INCLINATION":97.7093,"RA_OF_ASC_NODE":280.6575,"ARG_OF_PERICENTER":94.9642,"MEAN_ANOMALY":265.1862,"EPHEMERIS_TYPE":0,"NORAD_CAT_ID":62708,"ELEMENT_SET_NO":999,"REV_AT_EPOCH":8234,"BSTAR":0.000085355872,"MEAN_MOTION_DOT":0.00000949,"MEAN_MOTION_DDOT":0},{"OBJECT_NAME":"CENTAURI-8","OBJECT_ID":"2025-009DK","EPOCH":"2026-07-20T03:45:47.008512","CLASSIFICATION_TYPE":"U","MEAN_MOTION":14.97941944,"ECCENTRICITY":0.00025034,"INCLINATION":97.7034,"RA_OF_ASC_NODE":280.8325,"ARG_OF_PERICENTER":75.9133,"MEAN_ANOMALY":284.2368,"EPHEMERIS_TYPE":0,"NORAD_CAT_ID":62714,"ELEMENT_SET_NO":999,"REV_AT_EPOCH":8241,"BSTAR":0.00014140501,"MEAN_MOTION_DOT":0.00001609,"MEAN_MOTION_DDOT":0}]}
